[{"OBJECT_NAME":"OBJECT C","OBJECT_ID":"2024-018C","EPOCH":"2026-03-09T23:27:02.912256","MEAN_MOTION":14.40497628,"ECCENTRICITY":0.04251116,"INCLINATION":58.684,"RA_OF_ASC_NODE":211.7369,"ARG_OF_PERICENTER":351.7809,"MEAN_ANOMALY":7.6397,"EPHEMERIS_TYPE":0,"CLASSIFICATION_TYPE":"U","NORAD_CAT_ID":58851,"ELEMENT_SET_NO":999,"REV_AT_EPOCH":11099,"BSTAR":0.00023456096,"MEAN_MOTION_DOT":1.991e-5,"MEAN_MOTION_DDOT":0},{"OBJECT_NAME":"STARLINK-32318","OBJECT_ID":"2024-202V","EPOCH":"2026-03-09T11:45:56.344608","MEAN_MOTION":15.27572747,"ECCENTRICITY":5.194e-5,"INCLINATION":42.9949,"RA_OF_ASC_NODE":239.4111,"ARG_OF_PERICENTER":268.0856,"MEAN_ANOMALY":91.9936,"EPHEMERIS_TYPE":0,"CLASSIFICATION_TYPE":"U","NORAD_CAT_ID":61864,"ELEMENT_SET_NO":999,"REV_AT_EPOCH":7530,"BSTAR":-9.412172e-6,"MEAN_MOTION_DOT":-5.21e-6,"MEAN_MOTION_DDOT":0}]
